[{"OBJECT_NAME":"BEIJING-3B","OBJECT_ID":"2022-103A","EPOCH":"2026-03-09T23:12:38.807712","MEAN_MOTION":14.86939199,"ECCENTRICITY":0.00253745,"INCLINATION":97.8061,"RA_OF_ASC_NODE":148.0995,"ARG_OF_PERICENTER":23.8103,"MEAN_ANOMALY":336.4281,"EPHEMERIS_TYPE":0,"CLASSIFICATION_TYPE":"U","NORAD_CAT_ID":53587,"ELEMENT_SET_NO":999,"REV_AT_EPOCH":19234,"BSTAR":0.00021963538,"MEAN_MOTION_DOT":1.92e-5,"MEAN_MOTION_DDOT":0},{"OBJECT_NAME":"CZ-2C DEB","OBJECT_ID":"2014-014C","EPOCH":"2026-03-09T21:03:10.213920","MEAN_MOTION":14.96114302,"ECCENTRICITY":0.00460916,"INCLINATION":98.2261,"RA_OF_ASC_NODE":46.6653,"ARG_OF_PERICENTER":297.3827,"MEAN_ANOMALY":62.2706,"EPHEMERIS_TYPE":0,"CLASSIFICATION_TYPE":"U","NORAD_CAT_ID":39626,"ELEMENT_SET_NO":999,"REV_AT_EPOCH":63530,"BSTAR":0.002211971,"MEAN_MOTION_DOT":0.00025431,"MEAN_MOTION_DDOT":0}]
